OSCAR 7 (AO-7)          
1 07530U 74089B   26185.28851557 -.00000043  00000+0  19074-4 0  9998
2 07530 101.9900 198.7133 0012660  98.4849 273.4162 12.53698407362669
PHASE 3B (AO-10)        
1 14129U 83058B   26185.36417749  .00000171  00000+0  00000+0 0  9991
2 14129  25.9269 216.7306 6005072 120.3873 311.9427  2.05868912295847
UOSAT 2 (UO-11)         
1 14781U 84021B   26185.33680631  .00001623  00000+0  17048-3 0  9992
2 14781  97.8067 150.7210 0008909 121.3323 238.8769 14.90828993259683
LUSAT (LO-19)           
1 20442U 90005G   26185.48457947  .00000187  00000+0  83428-4 0  9990
2 20442  98.8845 207.7664 0012083 150.7420 209.4442 14.34128816904872
EYESAT A (AO-27)        
1 22825U 93061C   26184.64172526  .00000129  00000+0  66110-4 0  9991
2 22825  98.6874 252.0488 0009299  57.1001 303.1075 14.30946735709350
ITAMSAT (IO-26)         
1 22826U 93061D   26185.45505957  .00000132  00000+0  66438-4 0  9997
2 22826  98.6820 252.7811 0009558  39.4050 320.7827 14.31374357709787
RADIO ROSTO (RS15)      
1 23439U 94085A   26185.49904292 -.00000020  00000+0  65198-3 0  9992
2 23439  64.8176 275.2189 0156524   0.6769 359.4341 11.27583562297850
JAS-2 (FO-29)           
1 24278U 96046B   26185.53759951 -.00000022  00000+0  11740-4 0  9995
2 24278  98.5226  32.0316 0350732  51.5389 311.6677 13.53275016475519
TECHSAT 1B (GO-32)      
1 25397U 98043D   26185.41439164  .00000072  00000+0  51499-4 0  9994
2 25397  99.0076 178.6080 0001838 131.9279 228.2056 14.24431783453780
ISS (ZARYA)             
1 25544U 98067A   26185.47597407  .00009720  00000+0  18499-3 0  9996
2 25544  51.6303 214.5154 0006744 255.1217 104.9025 15.48889796574435
PCSAT (NO-44)           
1 26931U 01043C   26185.48093683  .00000178  00000+0  97381-4 0  9999
2 26931  67.0488 199.5420 0006014 265.8312  94.2103 14.31962328292926
SAUDISAT 1C (SO-50)     
1 27607U 02058C   26185.41777487  .00001077  00000+0  14408-3 0  9998
2 27607  64.5521  75.6740 0074819 259.2514 100.0163 14.83083246267019
CUTE-1 (CO-55)          
1 27844U 03031E   26185.45862507  .00000342  00000+0  16664-3 0  9995
2 27844  98.6738 193.8003 0010505 130.4916 229.7180 14.24346609194133
CUBESAT XI-IV (CO-57)   
1 27848U 03031J   26185.45575708  .00000289  00000+0  14607-3 0  9998
2 27848  98.6769 193.4963 0010079 147.8071 212.3725 14.23630269193838
MOZHAETS 4 (RS22)       
1 27939U 03042A   26185.66386074  .00000723  00000+0  11957-3 0  9998
2 27939  98.3470  10.5164 0010427 207.8599 211.3484 14.73498166218120
CUBESAT XI-V            
1 28895U 05043F   26185.38895324  .00001770  00000+0  28553-3 0  9998
2 28895  98.3005 341.3738 0014782 147.1004 213.1126 14.72680865104285
CUTE-1.7+APD II (CO-65) 
1 32785U 08021C   26185.41716368  .00007175  00000+0  44988-3 0  9999
2 32785  97.8290 167.1964 0007935 342.3852  17.7100 15.09624900987799
SEEDS II (CO-66)        
1 32791U 08021J   26185.43263930  .00026699  00000+0  82865-3 0  9998
2 32791  97.7524 184.1606 0001728 182.8998 177.2234 15.33363820989935
YUBILEINY (RS30)        
1 32953U 08025A   26185.56220166 -.00000042  00000+0 -37474-3 0  9992
2 32953  82.5051 344.6300 0018503 273.6836  86.2128 12.43179979821850
KKS-1 (KISEKI)          
1 33499U 09002H   26185.25784995  .00001600  00000+0  20293-3 0  9995
2 33499  98.1181 107.9705 0006635 228.4343 131.6302 14.83168983938729
SWISSCUBE               
1 35932U 09051B   26185.47808840  .00001528  00000+0  31098-3 0  9997
2 35932  98.4021  93.6669 0007217 148.5860 211.5774 14.62517748891680
BEESAT-1                
1 35933U 09051C   26185.01738541  .00001005  00000+0  21142-3 0  9997
2 35933  98.3948  92.7981 0005397 160.6033 199.5374 14.61748287891649
ITUPSAT1                
1 35935U 09051E   26185.02302402  .00000919  00000+0  19967-3 0  9998
2 35935  98.4031  91.9778 0007274 176.2481 183.8774 14.60466234891194
XIWANG-1 (HOPE-1)       
1 36122U 09072B   26185.57168150 -.00000551  00000+0 -13270-2 0  9994
2 36122 100.4037 139.1270 0007254 189.3062 170.7917 13.16437625795293
O/OREOS (USA 219)       
1 37224U 10062C   26185.60784881  .00003680  00000+0  35173-3 0  9999
2 37224  71.9706  40.8762 0013324  26.2334 333.9509 14.93823053119247
JUGNU                   
1 37839U 11058B   26185.38982096  .00000408  00000+0  73417-4 0  9999
2 37839  19.9588 203.9154 0018342 266.3518 222.4856 14.13781047761464
SRMSAT                  
1 37841U 11058D   26185.61869365  .00000423  00000+0  85947-4 0  9999
2 37841  19.9730 313.9643 0011848  35.9930  68.0324 14.11579515760289
STRAND-1                
1 39090U 13009E   26185.46140097  .00000341  00000+0  12909-3 0  9998
2 39090  98.3929   5.2711 0008762 171.3875 188.7464 14.37174069699547
ZACUBE-1 (TSHEPISOSAT)  
1 39417U 13066B   26184.93739966  .00003964  00000+0  30713-3 0  9991
2 39417  97.8036 147.3589 0043122 191.4127 168.6124 15.01282961683249
GOMX-1                  
1 39430U 13066Q   26185.61741005  .00001502  00000+0  23044-3 0  9994
2 39430  97.6469  24.9795 0129187  22.1376 338.5340 14.69517955672471
